start=new Date('2022-08-09T00:00:00.000Z').valueOf();
sats=[{"TLE_LINE2":"2 49732  53.2164 274.5707 0001693  53.5375 306.5773 15.08853806 37800","FILE":"3532305","BSTAR":"0.00019244000000","REF_FRAME":"TEME","TLE_LINE1":"1 49732U 21115J   22220.88444128  .00002777  00000-0  19244-3 0  9998","ELEMENT_SET_NO":"999","TIME_SYSTEM":"UTC","REV_AT_EPOCH":"3780","PERIAPSIS":"538.532","COUNTRY_CODE":"US","MEAN_MOTION":"15.08853806","SITE":"AFETR","CENTER_NAME":"EARTH","MEAN_ELEMENT_THEORY":"SGP4","RCS_SIZE":"LARGE","EPOCH":"2022-08-08T21:13:35.726592","OBJECT_NAME":"STARLINK-3246","GP_ID":"209862631","MEAN_MOTION_DDOT":"0.0000000000000","APOAPSIS":"540.874","RA_OF_ASC_NODE":"274.5707","EPHEMERIS_TYPE":"0","LAUNCH_DATE":"2021-12-02","INCLINATION":"53.2164","PERIOD":"95.437","DECAY_DATE":null,"OBJECT_ID":"2021-115J","CLASSIFICATION_TYPE":"U","OBJECT_TYPE":"PAYLOAD","MEAN_ANOMALY":"306.5773","SEMIMAJOR_AXIS":"6917.838","MEAN_MOTION_DOT":"0.00002777","NORAD_CAT_ID":"49732","ARG_OF_PERICENTER":"53.5375","ECCENTRICITY":"0.00016930"},{"RCS_SIZE":"LARGE","SITE":"AFETR","MEAN_MOTION":"15.08851657","MEAN_ELEMENT_THEORY":"SGP4","CENTER_NAME":"EARTH","COUNTRY_CODE":"US","PERIAPSIS":"538.710","TIME_SYSTEM":"UTC","REV_AT_EPOCH":"3780","BSTAR":"0.00012092000000","FILE":"3532305","REF_FRAME":"TEME","ELEMENT_SET_NO":"999","TLE_LINE1":"1 49733U 21115K   22220.87709061  .00001638  00000-0  12092-3 0  9997","TLE_LINE2":"2 49733  53.2167 274.6070 0001445  65.6490 294.4652 15.08851657 37808","ECCENTRICITY":"0.00014450","MEAN_MOTION_DOT":"0.00001638","NORAD_CAT_ID":"49733","ARG_OF_PERICENTER":"65.6490","CLASSIFICATION_TYPE":"U","OBJECT_TYPE":"PAYLOAD","MEAN_ANOMALY":"294.4652","SEMIMAJOR_AXIS":"6917.845","INCLINATION":"53.2167","DECAY_DATE":null,"PERIOD":"95.437","OBJECT_ID":"2021-115K","LAUNCH_DATE":"2021-12-02","EPHEMERIS_TYPE":"0","RA_OF_ASC_NODE":"274.6070","MEAN_MOTION_DDOT":"0.0000000000000","APOAPSIS":"540.709","EPOCH":"2022-08-08T21:03:00.628704","OBJECT_NAME":"STARLINK-3252","GP_ID":"209862881"},{"EPHEMERIS_TYPE":"0","LAUNCH_DATE":"2021-12-02","RA_OF_ASC_NODE":"264.8320","MEAN_MOTION_DDOT":"0.0000000000000","APOAPSIS":"540.912","EPOCH":"2022-08-08T19:55:26.528160","GP_ID":"209863133","OBJECT_NAME":"STARLINK-3238","ECCENTRICITY":"0.00017140","MEAN_MOTION_DOT":"0.00002844","ARG_OF_PERICENTER":"64.5850","NORAD_CAT_ID":"49734","MEAN_ANOMALY":"295.5319","OBJECT_TYPE":"PAYLOAD","CLASSIFICATION_TYPE":"U","SEMIMAJOR_AXIS":"6917.861","INCLINATION":"53.2174","OBJECT_ID":"2021-115L","PERIOD":"95.437","DECAY_DATE":null,"TIME_SYSTEM":"UTC","REV_AT_EPOCH":"3794","ELEMENT_SET_NO":"999","TLE_LINE1":"1 49734U 21115L   22220.83016815  .00002844  00000-0  19669-3 0  9999","BSTAR":"0.00019669000000","FILE":"3532305","REF_FRAME":"TEME","TLE_LINE2":"2 49734  53.2174 264.8320 0001714  64.5850 295.5319 15.08846351 37945","RCS_SIZE":"LARGE","MEAN_MOTION":"15.08846351","SITE":"AFETR","MEAN_ELEMENT_THEORY":"SGP4","CENTER_NAME":"EARTH","COUNTRY_CODE":"US","PERIAPSIS":"538.540"},{"ARG_OF_PERICENTER":"58.5755","NORAD_CAT_ID":"49735","MEAN_MOTION_DOT":"0.00001466","ECCENTRICITY":"0.00016210","OBJECT_ID":"2021-115M","DECAY_DATE":null,"PERIOD":"95.437","INCLINATION":"53.2166","SEMIMAJOR_AXIS":"6917.864","MEAN_ANOMALY":"301.5396","OBJECT_TYPE":"PAYLOAD","CLASSIFICATION_TYPE":"U","RA_OF_ASC_NODE":"274.5877","LAUNCH_DATE":"2021-12-02","EPHEMERIS_TYPE":"0","GP_ID":"209863384","OBJECT_NAME":"STARLINK-3113","EPOCH":"2022-08-08T21:08:18.883968","APOAPSIS":"540.850","MEAN_MOTION_DDOT":"0.0000000000000","MEAN_ELEMENT_THEORY":"SGP4","CENTER_NAME":"EARTH","MEAN_MOTION":"15.08845363","SITE":"AFETR","RCS_SIZE":"LARGE","PERIAPSIS":"538.608","COUNTRY_CODE":"US","REV_AT_EPOCH":"3780","TIME_SYSTEM":"UTC","TLE_LINE2":"2 49735  53.2166 274.5877 0001621  58.5755 301.5396 15.08845363 37806","TLE_LINE1":"1 49735U 21115M   22220.88077412  .00001466  00000-0  11017-3 0  9993","ELEMENT_SET_NO":"999","FILE":"3532305","BSTAR":"0.00011017000000","REF_FRAME":"TEME"},{"INCLINATION":"53.2181","OBJECT_ID":"2021-115N","DECAY_DATE":null,"PERIOD":"95.437","OBJECT_TYPE":"PAYLOAD","MEAN_ANOMALY":"303.2569","CLASSIFICATION_TYPE":"U","SEMIMAJOR_AXIS":"6917.874","MEAN_MOTION_DOT":"0.00000792","ARG_OF_PERICENTER":"56.8582","NORAD_CAT_ID":"49736","ECCENTRICITY":"0.00016510","EPOCH":"2022-08-08T20:06:03.128544","GP_ID":"209862132","OBJECT_NAME":"STARLINK-3148","MEAN_MOTION_DDOT":"0.0000000000000","APOAPSIS":"540.882","RA_OF_ASC_NODE":"264.7956","LAUNCH_DATE":"2021-12-02","EPHEMERIS_TYPE":"0","PERIAPSIS":"538.597","COUNTRY_CODE":"US","MEAN_MOTION":"15.08841966","SITE":"AFETR","MEAN_ELEMENT_THEORY":"SGP4","CENTER_NAME":"EARTH","RCS_SIZE":"LARGE","TLE_LINE2":"2 49736  53.2181 264.7956 0001651  56.8582 303.2569 15.08841966 37946","TLE_LINE1":"1 49736U 21115N   22220.83753621  .00000792  00000-0  67846-4 0  9995","ELEMENT_SET_NO":"999","FILE":"3532305","BSTAR":"0.00006784600000","REF_FRAME":"TEME","TIME_SYSTEM":"UTC","REV_AT_EPOCH":"3794"},{"PERIAPSIS":"538.591","COUNTRY_CODE":"US","CENTER_NAME":"EARTH","MEAN_ELEMENT_THEORY":"SGP4","SITE":"AFETR","MEAN_MOTION":"15.08856556","RCS_SIZE":"LARGE","TLE_LINE2":"2 49737  53.2157 264.8136 0001595  55.0972 305.0170 15.08856556 37941","TLE_LINE1":"1 49737U 21115P   22220.83384436  .00001455  00000-0  10945-3 0  9994","ELEMENT_SET_NO":"999","BSTAR":"0.00010945000000","FILE":"3532305","REF_FRAME":"TEME","REV_AT_EPOCH":"3794","TIME_SYSTEM":"UTC","OBJECT_ID":"2021-115P","PERIOD":"95.437","DECAY_DATE":null,"INCLINATION":"53.2157","SEMIMAJOR_AXIS":"6917.830","OBJECT_TYPE":"PAYLOAD","MEAN_ANOMALY":"305.0170","CLASSIFICATION_TYPE":"U","ARG_OF_PERICENTER":"55.0972","NORAD_CAT_ID":"49737","MEAN_MOTION_DOT":"0.00001455","ECCENTRICITY":"0.00015950","GP_ID":"209862382","OBJECT_NAME":"STARLINK-3225","EPOCH":"2022-08-08T20:00:44.152704","APOAPSIS":"540.798","MEAN_MOTION_DDOT":"0.0000000000000","RA_OF_ASC_NODE":"264.8136","LAUNCH_DATE":"2021-12-02","EPHEMERIS_TYPE":"0"},{"TLE_LINE2":"2 49738  53.2143 264.7839 0001606  61.5489 298.5665 15.08855002 37944","FILE":"3532305","BSTAR":"0.00032647000000","REF_FRAME":"TEME","TLE_LINE1":"1 49738U 21115Q   22220.84121983  .00004914  00000-0  32647-3 0  9998","ELEMENT_SET_NO":"999","TIME_SYSTEM":"UTC","REV_AT_EPOCH":"3794","PERIAPSIS":"538.589","COUNTRY_CODE":"US","MEAN_MOTION":"15.08855002","SITE":"AFETR","CENTER_NAME":"EARTH","MEAN_ELEMENT_THEORY":"SGP4","RCS_SIZE":"LARGE","EPOCH":"2022-08-08T20:11:21.393312","OBJECT_NAME":"STARLINK-3143","GP_ID":"209863633","MEAN_MOTION_DDOT":"0.0000000000000","APOAPSIS":"540.811","RA_OF_ASC_NODE":"264.7839","EPHEMERIS_TYPE":"0","LAUNCH_DATE":"2021-12-02","INCLINATION":"53.2143","PERIOD":"95.437","DECAY_DATE":null,"OBJECT_ID":"2021-115Q","CLASSIFICATION_TYPE":"U","MEAN_ANOMALY":"298.5665","OBJECT_TYPE":"PAYLOAD","SEMIMAJOR_AXIS":"6917.835","MEAN_MOTION_DOT":"0.00004914","NORAD_CAT_ID":"49738","ARG_OF_PERICENTER":"61.5489","ECCENTRICITY":"0.00016060"},{"TLE_LINE1":"1 49739U 21115R   22220.88812806  .00007795  00000-0  50698-3 0  9990","ELEMENT_SET_NO":"999","BSTAR":"0.00050698000000","FILE":"3532305","REF_FRAME":"TEME","TLE_LINE2":"2 49739  53.2151 274.5512 0001530  63.8971 296.2178 15.08863934 37800","REV_AT_EPOCH":"3780","TIME_SYSTEM":"UTC","COUNTRY_CODE":"US","PERIAPSIS":"538.614","RCS_SIZE":"LARGE","MEAN_ELEMENT_THEORY":"SGP4","CENTER_NAME":"EARTH","MEAN_MOTION":"15.08863934","SITE":"AFETR","APOAPSIS":"540.731","MEAN_MOTION_DDOT":"0.0000000000000","GP_ID":"209863884","OBJECT_NAME":"STARLINK-3155","EPOCH":"2022-08-08T21:18:54.264384","EPHEMERIS_TYPE":"0","LAUNCH_DATE":"2021-12-02","RA_OF_ASC_NODE":"274.5512","SEMIMAJOR_AXIS":"6917.807","MEAN_ANOMALY":"296.2178","OBJECT_TYPE":"PAYLOAD","CLASSIFICATION_TYPE":"U","OBJECT_ID":"2021-115R","DECAY_DATE":null,"PERIOD":"95.436","INCLINATION":"53.2151","ECCENTRICITY":"0.00015300","ARG_OF_PERICENTER":"63.8971","NORAD_CAT_ID":"49739","MEAN_MOTION_DOT":"0.00007795"},{"GP_ID":"209862632","OBJECT_NAME":"STARLINK-3226","EPOCH":"2022-08-08T20:27:14.629824","APOAPSIS":"540.802","MEAN_MOTION_DDOT":"0.0000000000000","RA_OF_ASC_NODE":"264.7240","EPHEMERIS_TYPE":"0","LAUNCH_DATE":"2021-12-02","OBJECT_ID":"2021-115S","PERIOD":"95.437","DECAY_DATE":null,"INCLINATION":"53.2162","SEMIMAJOR_AXIS":"6917.870","OBJECT_TYPE":"PAYLOAD","MEAN_ANOMALY":"298.9715","CLASSIFICATION_TYPE":"U","ARG_OF_PERICENTER":"61.1432","NORAD_CAT_ID":"49740","MEAN_MOTION_DOT":"0.00000507","ECCENTRICITY":"0.00015430","TLE_LINE2":"2 49740  53.2162 264.7240 0001543  61.1432 298.9715 15.08843518 37947","ELEMENT_SET_NO":"999","TLE_LINE1":"1 49740U 21115S   22220.85225266  .00000507  00000-0  49914-4 0  9991","FILE":"3532305","BSTAR":"0.00004991400000","REF_FRAME":"TEME","REV_AT_EPOCH":"3794","TIME_SYSTEM":"UTC","PERIAPSIS":"538.667","COUNTRY_CODE":"US","MEAN_ELEMENT_THEORY":"SGP4","CENTER_NAME":"EARTH","SITE":"AFETR","MEAN_MOTION":"15.08843518","RCS_SIZE":"LARGE"},{"MEAN_MOTION_DOT":"0.00001428","ARG_OF_PERICENTER":"56.7296","NORAD_CAT_ID":"49741","ECCENTRICITY":"0.00018130","INCLINATION":"53.2158","OBJECT_ID":"2021-115T","DECAY_DATE":null,"PERIOD":"95.437","MEAN_ANOMALY":"303.3870","OBJECT_TYPE":"PAYLOAD","CLASSIFICATION_TYPE":"U","SEMIMAJOR_AXIS":"6917.845","RA_OF_ASC_NODE":"264.7540","EPHEMERIS_TYPE":"0","LAUNCH_DATE":"2021-12-02","EPOCH":"2022-08-08T20:16:39.184608","GP_ID":"209862882","OBJECT_NAME":"STARLINK-3244","MEAN_MOTION_DDOT":"0.0000000000000","APOAPSIS":"540.964","MEAN_MOTION":"15.08851567","SITE":"AFETR","CENTER_NAME":"EARTH","MEAN_ELEMENT_THEORY":"SGP4","RCS_SIZE":"LARGE","PERIAPSIS":"538.456","COUNTRY_CODE":"US","TIME_SYSTEM":"UTC","REV_AT_EPOCH":"3794","TLE_LINE2":"2 49741  53.2158 264.7540 0001813  56.7296 303.3870 15.08851567 37940","TLE_LINE1":"1 49741U 21115T   22220.84489797  .00001428  00000-0  10780-3 0  9993","ELEMENT_SET_NO":"999","FILE":"3532305","REF_FRAME":"TEME","BSTAR":"0.00010780000000"}];
